CCSDS_OMM_VERS = 2.0
CREATION_DATE  = 
ORIGINATOR     = 

OBJECT_NAME    = STARLINK-36730
OBJECT_ID      = 2026-034AA
CENTER_NAME    = EARTH
REF_FRAME      = TEME
TIME_SYSTEM    = UTC
MEAN_ELEMENT_THEORY = SGP/SGP4

EPOCH          = 2026-03-10T18:55:13.811520
MEAN_MOTION    = 15.80970606
ECCENTRICITY   = .00009344
INCLINATION    = 53.1591
RA_OF_ASC_NODE = 205.6382
ARG_OF_PERICENTER = 83.4847
MEAN_ANOMALY   = 276.6282

EPHEMERIS_TYPE = 0
CLASSIFICATION_TYPE = U
NORAD_CAT_ID   = 67874
ELEMENT_SET_NO = 999
REV_AT_EPOCH   = 411
BSTAR          = .14449801E-2
MEAN_MOTION_DOT = .295811E-2
MEAN_MOTION_DDOT = 0

CCSDS_OMM_VERS = 2.0
CREATION_DATE  = 
ORIGINATOR     = 

OBJECT_NAME    = STARLINK-36727
OBJECT_ID      = 2026-034AB
CENTER_NAME    = EARTH
REF_FRAME      = TEME
TIME_SYSTEM    = UTC
MEAN_ELEMENT_THEORY = SGP/SGP4

EPOCH          = 2026-03-10T20:25:10.986240
MEAN_MOTION    = 15.80976450
ECCENTRICITY   = .00011025
INCLINATION    = 53.1591
RA_OF_ASC_NODE = 205.3148
ARG_OF_PERICENTER = 48.1146
MEAN_ANOMALY   = 311.9971

EPHEMERIS_TYPE = 0
CLASSIFICATION_TYPE = U
NORAD_CAT_ID   = 67875
ELEMENT_SET_NO = 999
REV_AT_EPOCH   = 412
BSTAR          = .13489569E-2
MEAN_MOTION_DOT = .275522E-2
MEAN_MOTION_DDOT = 0

CCSDS_OMM_VERS = 2.0
CREATION_DATE  = 
ORIGINATOR     = 

OBJECT_NAME    = STARLINK-36743
OBJECT_ID      = 2026-034AC
CENTER_NAME    = EARTH
REF_FRAME      = TEME
TIME_SYSTEM    = UTC
MEAN_ELEMENT_THEORY = SGP/SGP4

EPOCH          = 2026-03-10T20:24:06.147360
MEAN_MOTION    = 15.80976251
ECCENTRICITY   = .00007215
INCLINATION    = 53.1594
RA_OF_ASC_NODE = 205.3089
ARG_OF_PERICENTER = 97.6648
MEAN_ANOMALY   = 262.4457

EPHEMERIS_TYPE = 0
CLASSIFICATION_TYPE = U
NORAD_CAT_ID   = 67876
ELEMENT_SET_NO = 999
REV_AT_EPOCH   = 412
BSTAR          = .13213389E-2
MEAN_MOTION_DOT = .269684E-2
MEAN_MOTION_DDOT = 0

CCSDS_OMM_VERS = 2.0
CREATION_DATE  = 
ORIGINATOR     = 

OBJECT_NAME    = STARLINK-36784
OBJECT_ID      = 2026-034AD
CENTER_NAME    = EARTH
REF_FRAME      = TEME
TIME_SYSTEM    = UTC
MEAN_ELEMENT_THEORY = SGP/SGP4

EPOCH          = 2026-03-10T20:23:01.385376
MEAN_MOTION    = 15.80964936
ECCENTRICITY   = .00014232
INCLINATION    = 53.1595
RA_OF_ASC_NODE = 205.3042
ARG_OF_PERICENTER = 43.1080
MEAN_ANOMALY   = 317.0054

EPHEMERIS_TYPE = 0
CLASSIFICATION_TYPE = U
NORAD_CAT_ID   = 67877
ELEMENT_SET_NO = 999
REV_AT_EPOCH   = 412
BSTAR          = .11544612E-2
MEAN_MOTION_DOT = .234438E-2
MEAN_MOTION_DDOT = 0

CCSDS_OMM_VERS = 2.0
CREATION_DATE  = 
ORIGINATOR     = 

OBJECT_NAME    = STARLINK-36689
OBJECT_ID      = 2026-034AE
CENTER_NAME    = EARTH
REF_FRAME      = TEME
TIME_SYSTEM    = UTC
MEAN_ELEMENT_THEORY = SGP/SGP4

EPOCH          = 2026-03-10T20:21:56.088576
MEAN_MOTION    = 15.81008168
ECCENTRICITY   = .00005462
INCLINATION    = 53.1589
RA_OF_ASC_NODE = 205.2993
ARG_OF_PERICENTER = 86.5630
MEAN_ANOMALY   = 273.5455

EPHEMERIS_TYPE = 0
CLASSIFICATION_TYPE = U
NORAD_CAT_ID   = 67878
ELEMENT_SET_NO = 999
REV_AT_EPOCH   = 412
BSTAR          = .14892762E-2
MEAN_MOTION_DOT = .305795E-2
MEAN_MOTION_DDOT = 0

CCSDS_OMM_VERS = 2.0
CREATION_DATE  = 
ORIGINATOR     = 

OBJECT_NAME    = STARLINK-36818
OBJECT_ID      = 2026-035A
CENTER_NAME    = EARTH
REF_FRAME      = TEME
TIME_SYSTEM    = UTC
MEAN_ELEMENT_THEORY = SGP/SGP4

EPOCH          = 2026-03-10T22:00:03.000096
MEAN_MOTION    = 15.84661241
ECCENTRICITY   = .00010393
INCLINATION    = 97.2744
RA_OF_ASC_NODE = 2.3199
ARG_OF_PERICENTER = 83.6130
MEAN_ANOMALY   = 261.3626

EPHEMERIS_TYPE = 0
CLASSIFICATION_TYPE = U
NORAD_CAT_ID   = 67879
ELEMENT_SET_NO = 999
REV_AT_EPOCH   = 395
BSTAR          = -.57735974E-2
MEAN_MOTION_DOT = -.1181646E-1
MEAN_MOTION_DDOT = 0

CCSDS_OMM_VERS = 2.0
CREATION_DATE  = 
ORIGINATOR     = 

OBJECT_NAME    = STARLINK-36821
OBJECT_ID      = 2026-035B
CENTER_NAME    = EARTH
REF_FRAME      = TEME
TIME_SYSTEM    = UTC
MEAN_ELEMENT_THEORY = SGP/SGP4

EPOCH          = 2026-03-10T22:00:03.000096
MEAN_MOTION    = 15.84675851
ECCENTRICITY   = .00011092
INCLINATION    = 97.2737
RA_OF_ASC_NODE = 2.3234
ARG_OF_PERICENTER = 79.2894
MEAN_ANOMALY   = 274.2981

EPHEMERIS_TYPE = 0
CLASSIFICATION_TYPE = U
NORAD_CAT_ID   = 67880
ELEMENT_SET_NO = 999
REV_AT_EPOCH   = 395
BSTAR          = -.58269727E-2
MEAN_MOTION_DOT = -.1192188E-1
MEAN_MOTION_DDOT = 0

CCSDS_OMM_VERS = 2.0
CREATION_DATE  = 
ORIGINATOR     = 

OBJECT_NAME    = STARLINK-36808
OBJECT_ID      = 2026-035C
CENTER_NAME    = EARTH
REF_FRAME      = TEME
TIME_SYSTEM    = UTC
MEAN_ELEMENT_THEORY = SGP/SGP4

EPOCH          = 2026-03-10T22:00:03.000096
MEAN_MOTION    = 15.84719967
ECCENTRICITY   = .00009684
INCLINATION    = 97.2739
RA_OF_ASC_NODE = 2.3213
ARG_OF_PERICENTER = 91.5146
MEAN_ANOMALY   = 257.4285

EPHEMERIS_TYPE = 0
CLASSIFICATION_TYPE = U
NORAD_CAT_ID   = 67881
ELEMENT_SET_NO = 999
REV_AT_EPOCH   = 395
BSTAR          = -.57788591E-2
MEAN_MOTION_DOT = -.1185558E-1
MEAN_MOTION_DDOT = 0

CCSDS_OMM_VERS = 2.0
CREATION_DATE  = 
ORIGINATOR     = 

OBJECT_NAME    = STARLINK-36817
OBJECT_ID      = 2026-035D
CENTER_NAME    = EARTH
REF_FRAME      = TEME
TIME_SYSTEM    = UTC
MEAN_ELEMENT_THEORY = SGP/SGP4

EPOCH          = 2026-03-10T22:00:03.000096
MEAN_MOTION    = 15.84593593
ECCENTRICITY   = .00010955
INCLINATION    = 97.2721
RA_OF_ASC_NODE = 2.3259
ARG_OF_PERICENTER = 86.0962
MEAN_ANOMALY   = 276.7113

EPHEMERIS_TYPE = 0
CLASSIFICATION_TYPE = U
NORAD_CAT_ID   = 67882
ELEMENT_SET_NO = 999
REV_AT_EPOCH   = 395
BSTAR          = -.5901255E-2
MEAN_MOTION_DOT = -.1201494E-1
MEAN_MOTION_DDOT = 0

CCSDS_OMM_VERS = 2.0
CREATION_DATE  = 
ORIGINATOR     = 

OBJECT_NAME    = STARLINK-36856
OBJECT_ID      = 2026-035E
CENTER_NAME    = EARTH
REF_FRAME      = TEME
TIME_SYSTEM    = UTC
MEAN_ELEMENT_THEORY = SGP/SGP4

EPOCH          = 2026-03-10T22:00:03.000096
MEAN_MOTION    = 15.84616500
ECCENTRICITY   = .00010415
INCLINATION    = 97.2730
RA_OF_ASC_NODE = 2.3248
ARG_OF_PERICENTER = 76.3634
MEAN_ANOMALY   = 281.9438

EPHEMERIS_TYPE = 0
CLASSIFICATION_TYPE = U
NORAD_CAT_ID   = 67883
ELEMENT_SET_NO = 999
REV_AT_EPOCH   = 395
BSTAR          = -.58680076E-2
MEAN_MOTION_DOT = -.1196596E-1
MEAN_MOTION_DDOT = 0

CCSDS_OMM_VERS = 2.0
CREATION_DATE  = 
ORIGINATOR     = 

OBJECT_NAME    = STARLINK-36842
OBJECT_ID      = 2026-035F
CENTER_NAME    = EARTH
REF_FRAME      = TEME
TIME_SYSTEM    = UTC
MEAN_ELEMENT_THEORY = SGP/SGP4

EPOCH          = 2026-03-10T22:00:03.000096
MEAN_MOTION    = 15.84592092
ECCENTRICITY   = .00010699
INCLINATION    = 97.2721
RA_OF_ASC_NODE = 2.3279
ARG_OF_PERICENTER = 73.7439
MEAN_ANOMALY   = 293.4593

EPHEMERIS_TYPE = 0
CLASSIFICATION_TYPE = U
NORAD_CAT_ID   = 67884
ELEMENT_SET_NO = 999
REV_AT_EPOCH   = 395
BSTAR          = -.59312671E-2
MEAN_MOTION_DOT = -.1206851E-1
MEAN_MOTION_DDOT = 0

CCSDS_OMM_VERS = 2.0
CREATION_DATE  = 
ORIGINATOR     = 

OBJECT_NAME    = STARLINK-36826
OBJECT_ID      = 2026-035G
CENTER_NAME    = EARTH
REF_FRAME      = TEME
TIME_SYSTEM    = UTC
MEAN_ELEMENT_THEORY = SGP/SGP4

EPOCH          = 2026-03-10T22:00:03.000096
MEAN_MOTION    = 15.84633078
ECCENTRICITY   = .00010638
INCLINATION    = 97.2719
RA_OF_ASC_NODE = 2.3296
ARG_OF_PERICENTER = 80.8749
MEAN_ANOMALY   = 290.4450

EPHEMERIS_TYPE = 0
CLASSIFICATION_TYPE = U
NORAD_CAT_ID   = 67885
ELEMENT_SET_NO = 999
REV_AT_EPOCH   = 395
BSTAR          = -.59329854E-2
MEAN_MOTION_DOT = -.1209279E-1
MEAN_MOTION_DDOT = 0

