STARLINK-36730          
1 67874U 26034AA  26069.78835430  .00295811  00000+0  14450-2 0  9999
2 67874  53.1591 205.6382 0000934  83.4847 276.6282 15.80970606  4115
STARLINK-36727          
1 67875U 26034AB  26069.85082160  .00275522  00000+0  13490-2 0  9992
2 67875  53.1591 205.3148 0001102  48.1146 311.9971 15.80976450  4123
STARLINK-36743          
1 67876U 26034AC  26069.85007115  .00269684  00000+0  13213-2 0  9995
2 67876  53.1594 205.3089 0000721  97.6648 262.4457 15.80976251  4121
STARLINK-36784          
1 67877U 26034AD  26069.84932159  .00234438  00000+0  11545-2 0  9995
2 67877  53.1595 205.3042 0001423  43.1080 317.0054 15.80964936  4125
STARLINK-36689          
1 67878U 26034AE  26069.84856584  .00305795  00000+0  14893-2 0  9997
2 67878  53.1589 205.2993 0000546  86.5630 273.5455 15.81008168  4128
STARLINK-36818          
1 67879U 26035A   26069.91670139 -.01181646  00000+0 -57736-2 0  9990
2 67879  97.2744   2.3199 0001039  83.6130 261.3626 15.84661241  3951
STARLINK-36821          
1 67880U 26035B   26069.91670139 -.01192188  00000+0 -58270-2 0  9999
2 67880  97.2737   2.3234 0001109  79.2894 274.2981 15.84675851  3950
STARLINK-36808          
1 67881U 26035C   26069.91670139 -.01185558  00000+0 -57789-2 0  9997
2 67881  97.2739   2.3213 0000968  91.5146 257.4285 15.84719967  3956
STARLINK-36817          
1 67882U 26035D   26069.91670139 -.01201494  00000+0 -59013-2 0  9998
2 67882  97.2721   2.3259 0001095  86.0962 276.7113 15.84593593  3954
STARLINK-36856          
1 67883U 26035E   26069.91670139 -.01196596  00000+0 -58680-2 0  9994
2 67883  97.2730   2.3248 0001041  76.3634 281.9438 15.84616500  3954
STARLINK-36842          
1 67884U 26035F   26069.91670139 -.01206851  00000+0 -59313-2 0  9995
2 67884  97.2721   2.3279 0001069  73.7439 293.4593 15.84592092  3952
STARLINK-36826          
1 67885U 26035G   26069.91670139 -.01209279  00000+0 -59330-2 0  9992
2 67885  97.2719   2.3296 0001063  80.8749 290.4450 15.84633078  3955
